NORAD_CAT_ID,OBJECT_NAME,OBJECT_TYPE,EPOCH,MEAN_MOTION,ECCENTRICITY,INCLINATION,RA_OF_ASC_NODE,ARG_OF_PERICENTER,MEAN_ANOMALY,BSTAR,MEAN_MOTION_DOT,MEAN_MOTION_DDOT,TLE_LINE0,TLE_LINE1,TLE_LINE2,SEMIMAJOR_AXIS,PERIOD,APOGEE,PERIGEE,DECAYED
53553.0,STARLINK-4501,PAYLOAD,2023-03-24 13:36:10,15.08863839,0.0001266,53.2166,237.471,65.9306,294.1818,0.00022424,3.285e-05,0.0,0 STARLINK-4501,1 53553U 22101AC  23083.56678753  .00003285  00000-0  22424-3 0  9995,2 53553  53.2166 237.4710 0001266  65.9306 294.1818 15.08863839 33756,6917.808,95.436,540.548,538.797,0.0
53553.0,STARLINK-4501,PAYLOAD,2023-03-24 15:11:33,15.08869329,0.0001342,53.2175,237.1738,74.9672,285.1469,0.00025996,3.855e-05,0.0,0 STARLINK-4501,1 53553U 22101AC  23083.63302084  .00003855  00000-0  25996-3 0  9994,2 53553  53.2175 237.1738 0001342  74.9672 285.1469 15.08869329 33105,6917.791,95.436,540.584,538.727,0.0
53553.0,STARLINK-4501,PAYLOAD,2023-03-24 16:46:55,15.08872285,0.0001364,53.2167,236.8765,60.8898,299.2231,0.00027367,4.074e-05,0.0,0 STARLINK-4501,1 53553U 22101AC  23083.69925781  .00004074  00000-0  27367-3 0  9993,2 53553  53.2167 236.8765 0001364  60.8898 299.2231 15.08872285 33771,6917.782,95.436,540.59,538.703,0.0
53553.0,STARLINK-4501,PAYLOAD,2023-03-25 10:16:12,15.08836784,0.0001201,53.2161,233.6045,94.0028,266.1101,4.2705e-05,3.92e-06,0.0,0 STARLINK-4501,1 53553U 22101AC  23084.42792125  .00000392  00000-0  42705-4 0  9992,2 53553  53.2161 233.6045 0001201  94.0028 266.1101 15.08836784 33228,6917.89,95.438,540.586,538.924,0.0
53553.0,STARLINK-4501,PAYLOAD,2023-03-25 16:37:46,15.08822934,9.45e-05,53.2166,232.414,92.0029,268.1072,-6.6726e-05,-1.349e-05,0.0,0 STARLINK-4501,1 53553U 22101AC  23084.69289412 -.00001349  00000-0 -66726-4 0  9995,2 53553  53.2166 232.4140 0000945  92.0029 268.1072 15.08822934 33264,6917.933,95.439,540.451,539.144,0.0
53553.0,STARLINK-4501,PAYLOAD,2023-03-26 02:10:04,15.08833186,0.0001117,53.218,230.6311,90.1464,269.9656,-0.00017032,-2.997e-05,0.0,0 STARLINK-4501,1 53553U 22101AC  23085.09033298 -.00002997  00000-0 -17032-3 0  9994,2 53553  53.2180 230.6311 0001117  90.1464 269.9656 15.08833186 33329,6917.901,95.438,540.539,538.993,0.0
53553.0,STARLINK-4501,PAYLOAD,2023-03-26 16:28:34,15.08812899,0.0001147,53.2179,227.956,101.478,258.6341,-1.3126e-05,-4.96e-06,0.0,0 STARLINK-4501,1 53553U 22101AC  23085.68650783 -.00000496  00000-0 -13126-4 0  9996,2 53553  53.2179 227.9560 0001147 101.4780 258.6341 15.08812899 33416,6917.963,95.439,540.622,539.035,0.0
53553.0,STARLINK-4501,PAYLOAD,2023-03-27 02:00:51,15.08843089,0.0001472,53.2188,226.1714,114.0829,246.0317,-0.00028754,-4.862e-05,0.0,0 STARLINK-4501,1 53553U 22101AC  23086.08393386 -.00004862  00000-0 -28754-3 0  9997,2 53553  53.2188 226.1714 0001472 114.0829 246.0317 15.08843089 33478,6917.871,95.437,540.754,538.718,0.0
53553.0,STARLINK-4501,PAYLOAD,2023-03-27 13:08:34,15.08827665,0.0001182,53.2174,224.0876,108.4896,251.6224,0.00020226,2.932e-05,0.0,0 STARLINK-4501,1 53553U 22101AC  23086.54761641  .00002932  00000-0  20226-3 0  9991,2 53553  53.2174 224.0876 0001182 108.4896 251.6224 15.08827665 34201,6917.918,95.438,540.601,538.965,0.0
53553.0,STARLINK-4501,PAYLOAD,2023-03-27 16:19:20,15.08831721,0.0001358,53.2183,223.4954,114.4454,245.6679,0.00024766,3.655e-05,0.0,0 STARLINK-4501,1 53553U 22101AC  23086.68009411  .00003655  00000-0  24766-3 0  9992,2 53553  53.2183 223.4954 0001358 114.4454 245.6679 15.08831721 34220,6917.906,95.438,540.71,538.831,0.0
53553.0,STARLINK-4501,PAYLOAD,2023-03-28 12:59:21,15.08827134,0.0001353,53.2183,219.6276,108.2972,251.8167,0.00022919,3.36e-05,0.0,0 STARLINK-4501,1 53553U 22101AC  23087.54122406  .00003360  00000-0  22919-3 0  9999,2 53553  53.2183 219.6276 0001353 108.2972 251.8167 15.08827134 33699,6917.92,95.438,540.721,538.849,0.0
53553.0,STARLINK-4501,PAYLOAD,2023-03-28 16:10:07,15.08837608,0.000108,53.2169,219.0316,90.8049,269.3067,0.00022175,3.243e-05,0.0,0 STARLINK-4501,1 53553U 22101AC  23087.67369883  .00003243  00000-0  22175-3 0  9999,2 53553  53.2169 219.0316 0001080  90.8049 269.3067 15.08837608 33713,6917.888,95.438,540.5,539.006,0.0
53553.0,STARLINK-4501,PAYLOAD,2023-03-29 01:42:27,15.08832571,0.0001398,53.2179,217.2506,99.0297,261.0853,0.00015906,2.244e-05,0.0,0 STARLINK-4501,1 53553U 22101AC  23088.07114604  .00002244  00000-0  15906-3 0  9997,2 53553  53.2179 217.2506 0001398  99.0297 261.0853 15.08832571 33775,6917.903,95.438,540.735,538.801,0.0
53553.0,STARLINK-4501,PAYLOAD,2023-03-29 12:50:08,15.08843854,0.00015,53.2181,215.169,95.0779,265.0385,-2.358e-05,-6.63e-06,0.0,0 STARLINK-4501,1 53553U 22101AC  23088.53482436 -.00000663  00000-0 -23580-4 0  9992,2 53553  53.2181 215.1690 0001500  95.0779 265.0385 15.08843854 34507,6917.869,95.437,540.771,538.696,0.0
53553.0,STARLINK-4501,PAYLOAD,2023-03-29 16:00:54,15.0886037,0.0001579,53.2171,214.5736,91.8201,268.2972,-0.00015235,-2.713e-05,0.0,0 STARLINK-4501,1 53553U 22101AC  23088.66729631 -.00002713  00000-0 -15235-3 0  9992,2 53553  53.2171 214.5736 0001579  91.8201 268.2972 15.08860370 33867,6917.818,95.436,540.775,538.591,0.0
53553.0,STARLINK-4501,PAYLOAD,2023-03-30 07:54:46,15.08841798,0.0001773,53.217,211.6007,73.9675,286.1512,2.908e-05,1.75e-06,0.0,0 STARLINK-4501,1 53553U 22101AC  23089.32970435  .00000175  00000-0  29080-4 0  9998,2 53553  53.2170 211.6007 0001773  73.9675 286.1512 15.08841798 33960,6917.875,95.437,540.966,538.513,0.0
53553.0,STARLINK-4501,PAYLOAD,2023-03-30 14:16:18,15.08846106,0.0001405,53.2176,210.4093,81.8232,278.2919,7.0815e-05,8.39e-06,0.0,0 STARLINK-4501,1 53553U 22101AC  23089.59465939  .00000839  00000-0  70815-4 0  9994,2 53553  53.2176 210.4093 0001405  81.8232 278.2919 15.08846106 34666,6917.862,95.437,540.699,538.755,0.0
53553.0,STARLINK-4501,PAYLOAD,2023-03-31 01:23:58,15.08864694,0.0001276,53.2172,208.3297,95.3184,264.7954,0.0002289,3.359e-05,0.0,0 STARLINK-4501,1 53553U 22101AC  23090.05831710  .00003359  00000-0  22890-3 0  9990,2 53553  53.2172 208.3297 0001276  95.3184 264.7954 15.08864694 34072,6917.805,95.436,540.553,538.787,0.0
53553.0,STARLINK-4501,PAYLOAD,2023-03-31 07:45:19,15.09002356,0.0001305,53.2186,207.1398,62.4456,297.6668,0.0013614,0.00021542,0.0,0 STARLINK-4501,1 53553U 22101AC  23090.32314711  .00021542  00000-0  13614-2 0  9994,2 53553  53.2186 207.1398 0001305  62.4456 297.6668 15.09002356 34118,6917.384,95.427,540.152,538.346,0.0
53553.0,STARLINK-4501,PAYLOAD,2023-03-31 15:41:58,15.09174313,0.0001803,53.2183,205.6491,118.2387,241.8787,0.0025246,0.00040493,0.0,0 STARLINK-4501,1 53553U 22101AC  23090.65414841  .00040493  00000-0  25246-2 0  9995,2 53553  53.2183 205.6491 0001803 118.2387 241.8787 15.09174313 34169,6916.859,95.416,539.971,537.477,0.0
53553.0,STARLINK-4501,PAYLOAD,2023-04-01 01:13:44,15.09507565,0.0001088,53.219,203.8676,58.2238,301.8861,0.0048863,0.00079808,0.0,0 STARLINK-4501,1 53553U 22101AC  23091.05120442  .00079808  00000-0  48863-2 0  9993,2 53553  53.2190 203.8676 0001088  58.2238 301.8861 15.09507565 34221,6915.841,95.395,538.458,536.953,0.0
53553.0,STARLINK-4501,PAYLOAD,2023-04-01 10:45:42,15.09596723,0.000143,53.2202,202.0826,32.6086,327.4994,0.0051908,0.00085071,0.0,0 STARLINK-4501,1 53553U 22101AC  23091.44841093  .00085071  00000-0  51908-2 0  9991,2 53553  53.2202 202.0826 0001430  32.6086 327.4994 15.09596723 34282,6915.568,95.39,538.422,536.444,0.0
53553.0,STARLINK-4501,PAYLOAD,2023-04-01 15:31:28,15.09789304,8.05e-05,53.219,201.1879,64.0806,296.0269,0.0063872,0.00105608,0.0,0 STARLINK-4501,1 53553U 22101AC  23091.64685588  .00105608  00000-0  63872-2 0  9990,2 53553  53.2190 201.1879 0000805  64.0806 296.0269 15.09789304 34319,6914.98,95.378,537.402,536.289,0.0
53553.0,STARLINK-4501,PAYLOAD,2023-04-01 21:52:42,15.09869087,9.73e-05,53.2193,199.9977,92.761,267.3494,0.0064088,0.00106208,0.0,0 STARLINK-4501,1 53553U 22101AC  23091.91160328  .00106208  00000-0  64088-2 0  9997,2 53553  53.2193 199.9977 0000973  92.7610 267.3494 15.09869087 35018,6914.737,95.373,537.274,535.929,0.0
53553.0,STARLINK-4501,PAYLOAD,2023-04-02 12:10:28,15.10038587,0.000145,53.2187,197.3186,68.3271,291.7876,0.0051024,0.00084636,0.0,0 STARLINK-4501,1 53553U 22101AC  23092.50727061  .00084636  00000-0  51024-2 0  9992,2 53553  53.2187 197.3186 0001450  68.3271 291.7876 15.10038587 34444,6914.219,95.362,537.087,535.082,0.0
53553.0,STARLINK-4501,PAYLOAD,2023-04-02 13:45:44,15.10118222,0.0001587,53.2186,197.0188,104.9548,255.1621,0.0041643,0.00069022,0.0,0 STARLINK-4501,1 53553U 22101AC  23092.57343217  .00069022  00000-0  41643-2 0  9994,2 53553  53.2186 197.0188 0001587 104.9548 255.1621 15.10118222 35119,6913.976,95.357,536.938,534.744,0.0
53553.0,STARLINK-4501,PAYLOAD,2023-04-02 16:56:19,15.1013855,0.0001284,53.2174,196.4194,108.3532,251.76,0.0041494,0.0006881,0.0,0 STARLINK-4501,1 53553U 22101AC  23092.70578548  .00068810  00000-0  41494-2 0  9994,2 53553  53.2174 196.4194 0001284 108.3532 251.7600 15.10138550 34474,6913.914,95.355,536.667,534.891,0.0
53553.0,STARLINK-4501,PAYLOAD,2023-04-02 21:42:14,15.10171522,0.0001226,53.2181,195.5313,72.2614,287.8512,0.0034549,0.00057203,0.0,0 STARLINK-4501,1 53553U 22101AC  23092.90433159  .00057203  00000-0  34549-2 0  9991,2 53553  53.2181 195.5313 0001226  72.2614 287.8512 15.10171522 35166,6913.813,95.353,536.526,534.831,0.0
53553.0,STARLINK-4501,PAYLOAD,2023-04-03 06:00:00,15.10461199,0.0001482,53.2168,193.9705,92.7845,348.1461,0.0033615,0.00056087,0.0,0 STARLINK-4501,1 53553U 22101AC  23093.25001157  .00056087  00000-0  33615-2 0  9991,2 53553  53.2168 193.9705 0001482  92.7845 348.1461 15.10461199 34553,6912.929,95.335,535.819,533.77,0.0
53553.0,STARLINK-4501,PAYLOAD,2023-04-03 14:00:01,15.10503102,0.0001497,53.2167,192.4722,86.4578,8.0402,-0.0036677,-0.0006088,0.0,0 STARLINK-4501,1 53553U 22101AC  23093.58334491 -.00060880  00000-0 -36677-2 0  9996,2 53553  53.2167 192.4722 0001497  86.4578   8.0402 15.10503102  1309,6912.802,95.332,535.701,533.632,0.0
